{"type": "FeatureCollection", "features": [ {"type": "Feature", "properties": {"norad_id": 66845, "name": "STARLINK-36068", "group": "last-30-days", "lat": 24.13363114323697, "lon": 3.564944016384188, "alt_km": 345.38224915825776, "timestamp": "2025-12-14T18:52:54.243887+00:00", "meta": {"OBJECT_NAME": "STARLINK-36068", "OBJECT_ID": "2025-280AA", "EPOCH": "2025-12-13T22:25:34.764096", "MEAN_MOTION": 15.7620296, "ECCENTRICITY": 0.00063765, "INCLINATION": 69.9917, "RA_OF_ASC_NODE": 195.3786, "ARG_OF_PERICENTER": 311.2733, "MEAN_ANOMALY": 48.7916, "EPHEMERIS_TYPE": 0, "CLASSIFICATION_TYPE": "U", "NORAD_CAT_ID": 66845, "ELEMENT_SET_NO": 999, "REV_AT_EPOCH": 311, "BSTAR": -0.0018241243, "MEAN_MOTION_DOT": -0.00278079, "MEAN_MOTION_DDOT": 0}, "tle": {"line1": "1 66845U 25280AA  25347.93443014 -.00278079  00000+0 -18241-2 0  9997", "line2": "2 66845  69.9917 195.3786 0006376 311.2733  48.7916 15.76202960  3111"}}, "geometry": {"type": "Point", "coordinates": [3.564944016384188, 24.13363114323697]}}, {"type": "Feature", "properties": {"norad_id": 66846, "name": "STARLINK-36055", "group": "last-30-days", "lat": 8.13552179085326, "lon": 9.955216082956031, "alt_km": 326.4072887614193, "timestamp": "2025-12-14T18:52:54.243899+00:00", "meta": {"OBJECT_NAME": "STARLINK-36055", "OBJECT_ID": "2025-280AB", "EPOCH": "2025-12-13T17:51:20.169216", "MEAN_MOTION": 15.79864364, "ECCENTRICITY": 0.00146728, "INCLINATION": 69.9914, "RA_OF_ASC_NODE": 195.919, "ARG_OF_PERICENTER": 251.2931, "MEAN_ANOMALY": 108.6677, "EPHEMERIS_TYPE": 0, "CLASSIFICATION_TYPE": "U", "NORAD_CAT_ID": 66846, "ELEMENT_SET_NO": 999, "REV_AT_EPOCH": 308, "BSTAR": 0.0034197302, "MEAN_MOTION_DOT": 0.00687933, "MEAN_MOTION_DDOT": 0}, "tle": {"line1": "1 66846U 25280AB  25347.74398344  .00687933  00000+0  34197-2 0  9991", "line2": "2 66846  69.9914 195.9190 0014672 251.2931 108.6677 15.79864364  3086"}}, "geometry": {"type": "Point", "coordinates": [9.955216082956031, 8.13552179085326]}}, {"type": "Feature", "properties": {"norad_id": 66847, "name": "STARLINK-36061", "group": "last-30-days", "lat": 26.372664750968084, "lon": 2.5564629213088876, "alt_km": 348.1895198179709, "timestamp": "2025-12-14T18:52:54.243909+00:00", "meta": {"OBJECT_NAME": "STARLINK-36061", "OBJECT_ID": "2025-280AC", "EPOCH": "2025-12-13T17:51:19.527264", "MEAN_MOTION": 15.77396097, "ECCENTRICITY": 0.00054047, "INCLINATION": 69.9917, "RA_OF_ASC_NODE": 195.9194, "ARG_OF_PERICENTER": 250.0033, "MEAN_ANOMALY": 110.0585, "EPHEMERIS_TYPE": 0, "CLASSIFICATION_TYPE": "U", "NORAD_CAT_ID": 66847, "ELEMENT_SET_NO": 999, "REV_AT_EPOCH": 308, "BSTAR": -0.013093764, "MEAN_MOTION_DOT": -0.01895367, "MEAN_MOTION_DDOT": 0}, "tle": {"line1": "1 66847U 25280AC  25347.74397601 -.01895367  00000+0 -13094-1 0  9994", "line2": "2 66847  69.9917 195.9194 0005404 250.0033 110.0585 15.77396097  3083"}}, "geometry": {"type": "Point", "coordinates": [2.5564629213088876, 26.372664750968084]}}, {"type": "Feature", "properties": {"norad_id": 66848, "name": "STARLINK-36091", "group": "last-30-days", "lat": -4.0376503180026315, "lon": 105.372287395824, "alt_km": 306.07472075246824, "timestamp": "2025-12-14T18:52:54.243919+00:00", "meta": {"OBJECT_NAME": "STARLINK-36091", "OBJECT_ID": "2025-281A", "EPOCH": "2025-12-13T17:15:22.743072", "MEAN_MOTION": 15.88891532, "ECCENTRICITY": 0.00021093, "INCLINATION": 43.0005, "RA_OF_ASC_NODE": 116.3275, "ARG_OF_PERICENTER": 292.5122, "MEAN_ANOMALY": 67.5529, "EPHEMERIS_TYPE": 0, "CLASSIFICATION_TYPE": "U", "NORAD_CAT_ID": 66848, "ELEMENT_SET_NO": 999, "REV_AT_EPOCH": 295, "BSTAR": -0.00074086338, "MEAN_MOTION_DOT": -0.00213288, "MEAN_MOTION_DDOT": 0}, "tle": {"line1": "1 66848U 25281A   25347.71901323 -.00213288  00000+0 -74086-3 0  9990", "line2": "2 66848  43.0005 116.3275 0002109 292.5122  67.5529 15.88891532  2956"}}, "geometry": {"type": "Point", "coordinates": [105.372287395824, -4.0376503180026315]}}, {"type": "Feature", "properties": {"norad_id": 66849, "name": "STARLINK-36102", "group": "last-30-days", "lat": -1.6724130254633098, "lon": 107.91160779239486, "alt_km": 304.4234405996058, "timestamp": "2025-12-14T18:52:54.243930+00:00", "meta": {"OBJECT_NAME": "STARLINK-36102", "OBJECT_ID": "2025-281B", "EPOCH": "2025-12-13T17:14:47.111712", "MEAN_MOTION": 15.88998541, "ECCENTRICITY": 0.00034155, "INCLINATION": 43.0006, "RA_OF_ASC_NODE": 116.3234, "ARG_OF_PERICENTER": 283.7385, "MEAN_ANOMALY": 76.3109, "EPHEMERIS_TYPE": 0, "CLASSIFICATION_TYPE": "U", "NORAD_CAT_ID": 66849, "ELEMENT_SET_NO": 999, "REV_AT_EPOCH": 295, "BSTAR": -0.00015545097, "MEAN_MOTION_DOT": -0.00046329, "MEAN_MOTION_DDOT": 0}, "tle": {"line1": "1 66849U 25281B   25347.71860083 -.00046329  00000+0 -15545-3 0  9993", "line2": "2 66849  43.0006 116.3234 0003415 283.7385  76.3109 15.88998541  2957"}}, "geometry": {"type": "Point", "coordinates": [107.91160779239486, -1.6724130254633098]}}, {"type": "Feature", "properties": {"norad_id": 66850, "name": "STARLINK-36105", "group": "last-30-days", "lat": 5.789060287848245, "lon": 115.92566924121539, "alt_km": 298.9095359562425, "timestamp": "2025-12-14T18:52:54.243940+00:00", "meta": {"OBJECT_NAME": "STARLINK-36105", "OBJECT_ID": "2025-281C", "EPOCH": "2025-12-13T08:10:57.457920", "MEAN_MOTION": 15.89821555, "ECCENTRICITY": 0.00037044, "INCLINATION": 43.0001, "RA_OF_ASC_NODE": 118.6551, "ARG_OF_PERICENTER": 242.7063, "MEAN_ANOMALY": 117.3434, "EPHEMERIS_TYPE": 0, "CLASSIFICATION_TYPE": "U", "NORAD_CAT_ID": 66850, "ELEMENT_SET_NO": 999, "REV_AT_EPOCH": 289, "BSTAR": 0.0014498555, "MEAN_MOTION_DOT": 0.00470482, "MEAN_MOTION_DDOT": 0}, "tle": {"line1": "1 66850U 25281C   25347.34094280  .00470482  00000+0  14499-2 0  9997", "line2": "2 66850  43.0001 118.6551 0003704 242.7063 117.3434 15.89821555  2891"}}, "geometry": {"type": "Point", "coordinates": [115.92566924121539, 5.789060287848245]}}, {"type": "Feature", "properties": {"norad_id": 66851, "name": "STARLINK-36094", "group": "last-30-days", "lat": 2.3314815848720216, "lon": 112.19686842632755, "alt_km": 304.45421186901694, "timestamp": "2025-12-14T18:52:54.243952+00:00", "meta": {"OBJECT_NAME": "STARLINK-36094", "OBJECT_ID": "2025-281D", "EPOCH": "2025-12-13T08:10:21.686592", "MEAN_MOTION": 15.8981292, "ECCENTRICITY": 0.00032289, "INCLINATION": 43.0005, "RA_OF_ASC_NODE": 118.6519, "ARG_OF_PERICENTER": 315.9099, "MEAN_ANOMALY": 44.1517, "EPHEMERIS_TYPE": 0, "CLASSIFICATION_TYPE": "U", "NORAD_CAT_ID": 66851, "ELEMENT_SET_NO": 999, "REV_AT_EPOCH": 289, "BSTAR": -0.0017495021, "MEAN_MOTION_DOT": -0.00510231, "MEAN_MOTION_DDOT": 0}, "tle": {"line1": "1 66851U 25281D   25347.34052878 -.00510231  00000+0 -17495-2 0  9993", "line2": "2 66851  43.0005 118.6519 0003228 315.9099  44.1517 15.89812920  2898"}}, "geometry": {"type": "Point", "coordinates": [112.19686842632755, 2.3314815848720216]}}, {"type": "Feature", "properties": {"norad_id": 66852, "name": "STARLINK-35992", "group": "last-30-days", "lat": 4.35869726637864, "lon": 114.37771792665303, "alt_km": 306.635048439397, "timestamp": "2025-12-14T18:52:54.243962+00:00", "meta": {"OBJECT_NAME": "STARLINK-35992", "OBJECT_ID": "2025-281E", "EPOCH": "2025-12-13T17:11:58.334496", "MEAN_MOTION": 15.89029664, "ECCENTRICITY": 0.00036513, "INCLINATION": 42.9998, "RA_OF_ASC_NODE": 116.3082, "ARG_OF_PERICENTER": 297.4358, "MEAN_ANOMALY": 62.6145, "EPHEMERIS_TYPE": 0, "CLASSIFICATION_TYPE": "U", "NORAD_CAT_ID": 66852, "ELEMENT_SET_NO": 999, "REV_AT_EPOCH": 295, "BSTAR": -0.0022152341, "MEAN_MOTION_DOT": -0.00613781, "MEAN_MOTION_DDOT": 0}, "tle": {"line1": "1 66852U 25281E   25347.71664739 -.00613781  00000+0 -22152-2 0  9990", "line2": "2 66852  42.9998 116.3082 0003651 297.4358  62.6145 15.89029664  2954"}}, "geometry": {"type": "Point", "coordinates": [114.37771792665303, 4.35869726637864]}}, {"type": "Feature", "properties": {"norad_id": 66853, "name": "STARLINK-35986", "group": "last-30-days", "lat": 9.795135068732128, "lon": 120.34032332963508, "alt_km": 301.5553181616051, "timestamp": "2025-12-14T18:52:54.243972+00:00", "meta": {"OBJECT_NAME": "STARLINK-35986", "OBJECT_ID": "2025-281F", "EPOCH": "2025-12-13T06:38:28.442112", "MEAN_MOTION": 15.90153253, "ECCENTRICITY": 0.00023091, "INCLINATION": 43.0005, "RA_OF_ASC_NODE": 119.0322, "ARG_OF_PERICENTER": 242.4337, "MEAN_ANOMALY": 117.6303, "EPHEMERIS_TYPE": 0, "CLASSIFICATION_TYPE": "U", "NORAD_CAT_ID": 66853, "ELEMENT_SET_NO": 999, "REV_AT_EPOCH": 288, "BSTAR": -0.00017869687, "MEAN_MOTION_DOT": -0.00056272, "MEAN_MOTION_DDOT": 0}, "tle": {"line1": "1 66853U 25281F   25347.27671808 -.00056272  00000+0 -17870-3 0  9995", "line2": "2 66853  43.0005 119.0322 0002309 242.4337 117.6303 15.90153253  2882"}}, "geometry": {"type": "Point", "coordinates": [120.34032332963508, 9.795135068732128]}}, {"type": "Feature", "properties": {"norad_id": 66854, "name": "STARLINK-36087", "group": "last-30-days", "lat": 21.265421699155343, "lon": 134.30751811389186, "alt_km": 288.65275024862876, "timestamp": "2025-12-14T18:52:54.243985+00:00", "meta": {"OBJECT_NAME": "STARLINK-36087", "OBJECT_ID": "2025-281G", "EPOCH": "2025-12-13T12:39:01.288800", "MEAN_MOTION": 15.91597639, "ECCENTRICITY": 0.00118184, "INCLINATION": 43.0001, "RA_OF_ASC_NODE": 117.4673, "ARG_OF_PERICENTER": 281.6717, "MEAN_ANOMALY": 78.2831, "EPHEMERIS_TYPE": 0, "CLASSIFICATION_TYPE": "U", "NORAD_CAT_ID": 66854, "ELEMENT_SET_NO": 999, "REV_AT_EPOCH": 292, "BSTAR": 0.0028310803, "MEAN_MOTION_DOT": 0.00954127, "MEAN_MOTION_DDOT": 0.00039149778}, "tle": {"line1": "1 66854U 25281G   25347.52709825  .00954127  39150-3  28311-2 0  9992", "line2": "2 66854  43.0001 117.4673 0011818 281.6717  78.2831 15.91597639  2926"}}, "geometry": {"type": "Point", "coordinates": [134.30751811389186, 21.265421699155343]}}]}